{
  "type": "FeatureCollection",
  "features": [
    {
      "type": "Feature",
      "properties": {
        "norad_id": 66799,
        "name": "STARLINK-36044",
        "group": "last-30-days",
        "lat": 40.87408434132808,
        "lon": -88.95005719927654,
        "alt_km": 379.71163595264625,
        "timestamp": "2025-12-20T20:38:43.172975+00:00",
        "meta_object_name": "STARLINK-36044",
        "meta_object_id": "2025-278J",
        "meta_epoch": "2025-12-20T14:00:03.000384",
        "meta_mean_motion": 15.62065553,
        "meta_eccentricity": 0.00015523,
        "meta_inclination": 42.9992,
        "meta_ra_of_asc_node": 204.4537,
        "meta_arg_of_pericenter": 252.0133,
        "meta_mean_anomaly": 63.572,
        "meta_ephemeris_type": 0,
        "meta_classification_type": "U",
        "meta_norad_cat_id": 66799,
        "meta_element_set_no": 999,
        "meta_rev_at_epoch": 421,
        "meta_bstar": -0.024359541,
        "meta_mean_motion_dot": -0.01934455,
        "meta_mean_motion_ddot": 0,
        "tle_line1": "1 66799U 25278J   25354.58336806 -.01934455  00000+0 -24360-1 0  9997",
        "tle_line2": "2 66799  42.9992 204.4537 0001552 252.0133  63.5720 15.62065553  4216"
      },
      "geometry": {
        "type": "Point",
        "coordinates": [
          -88.95005719927654,
          40.87408434132808
        ]
      }
    },
    {
      "type": "Feature",
      "properties": {
        "norad_id": 66800,
        "name": "STARLINK-35996",
        "group": "last-30-days",
        "lat": 41.73796305454268,
        "lon": -83.98036266634875,
        "alt_km": 379.57242099033465,
        "timestamp": "2025-12-20T20:38:43.172986+00:00",
        "meta_object_name": "STARLINK-35996",
        "meta_object_id": "2025-278K",
        "meta_epoch": "2025-12-20T14:00:03.000384",
        "meta_mean_motion": 15.62064894,
        "meta_eccentricity": 0.00015487,
        "meta_inclination": 42.9994,
        "meta_ra_of_asc_node": 204.4438,
        "meta_arg_of_pericenter": 251.7193,
        "meta_mean_anomaly": 67.7015,
        "meta_ephemeris_type": 0,
        "meta_classification_type": "U",
        "meta_norad_cat_id": 66800,
        "meta_element_set_no": 999,
        "meta_rev_at_epoch": 401,
        "meta_bstar": -0.024362776,
        "meta_mean_motion_dot": -0.01934634,
        "meta_mean_motion_ddot": 0,
        "tle_line1": "1 66800U 25278K   25354.58336806 -.01934634  00000+0 -24363-1 0  9992",
        "tle_line2": "2 66800  42.9994 204.4438 0001548 251.7193  67.7015 15.62064894  4016"
      },
      "geometry": {
        "type": "Point",
        "coordinates": [
          -83.98036266634875,
          41.73796305454268
        ]
      }
    },
    {
      "type": "Feature",
      "properties": {
        "norad_id": 66801,
        "name": "STARLINK-36080",
        "group": "last-30-days",
        "lat": 42.91262236903209,
        "lon": -71.11330184492836,
        "alt_km": 379.40065587393565,
        "timestamp": "2025-12-20T20:38:43.172997+00:00",
        "meta_object_name": "STARLINK-36080",
        "meta_object_id": "2025-278L",
        "meta_epoch": "2025-12-20T14:00:03.000384",
        "meta_mean_motion": 15.62066167,
        "meta_eccentricity": 0.00016065,
        "meta_inclination": 42.999,
        "meta_ra_of_asc_node": 204.4186,
        "meta_arg_of_pericenter": 253.3196,
        "meta_mean_anomaly": 75.6839,
        "meta_ephemeris_type": 0,
        "meta_classification_type": "U",
        "meta_norad_cat_id": 66801,
        "meta_element_set_no": 999,
        "meta_rev_at_epoch": 421,
        "meta_bstar": -0.024370169,
        "meta_mean_motion_dot": -0.01935279,
        "meta_mean_motion_ddot": 0,
        "tle_line1": "1 66801U 25278L   25354.58336806 -.01935279  00000+0 -24370-1 0  9997",
        "tle_line2": "2 66801  42.9990 204.4186 0001606 253.3196  75.6839 15.62066167  4218"
      },
      "geometry": {
        "type": "Point",
        "coordinates": [
          -71.11330184492836,
          42.91262236903209
        ]
      }
    },
    {
      "type": "Feature",
      "properties": {
        "norad_id": 66802,
        "name": "STARLINK-35604",
        "group": "last-30-days",
        "lat": 41.333275803496036,
        "lon": -86.48034492481294,
        "alt_km": 379.6398534584878,
        "timestamp": "2025-12-20T20:38:43.173007+00:00",
        "meta_object_name": "STARLINK-35604",
        "meta_object_id": "2025-278M",
        "meta_epoch": "2025-12-20T14:00:03.000384",
        "meta_mean_motion": 15.62066775,
        "meta_eccentricity": 0.00015507,
        "meta_inclination": 42.9993,
        "meta_ra_of_asc_node": 204.4477,
        "meta_arg_of_pericenter": 255.2542,
        "meta_mean_anomaly": 62.2485,
        "meta_ephemeris_type": 0,
        "meta_classification_type": "U",
        "meta_norad_cat_id": 66802,
        "meta_element_set_no": 999,
        "meta_rev_at_epoch": 421,
        "meta_bstar": -0.024388498,
        "meta_mean_motion_dot": -0.01936562,
        "meta_mean_motion_ddot": 0,
        "tle_line1": "1 66802U 25278M   25354.58336806 -.01936562  00000+0 -24388-1 0  9993",
        "tle_line2": "2 66802  42.9993 204.4477 0001550 255.2542  62.2485 15.62066775  4213"
      },
      "geometry": {
        "type": "Point",
        "coordinates": [
          -86.48034492481294,
          41.333275803496036
        ]
      }
    },
    {
      "type": "Feature",
      "properties": {
        "norad_id": 66803,
        "name": "STARLINK-35565",
        "group": "last-30-days",
        "lat": 42.08754432638265,
        "lon": -81.4531547155781,
        "alt_km": 379.5384941325301,
        "timestamp": "2025-12-20T20:38:43.173019+00:00",
        "meta_object_name": "STARLINK-35565",
        "meta_object_id": "2025-278N",
        "meta_epoch": "2025-12-20T14:00:03.000384",
        "meta_mean_motion": 15.6206515,
        "meta_eccentricity": 0.00015924,
        "meta_inclination": 42.9995,
        "meta_ra_of_asc_node": 204.4383,
        "meta_arg_of_pericenter": 250.8399,
        "meta_mean_anomaly": 70.4956,
        "meta_ephemeris_type": 0,
        "meta_classification_type": "U",
        "meta_norad_cat_id": 66803,
        "meta_element_set_no": 999,
        "meta_rev_at_epoch": 430,
        "meta_bstar": -0.024348974,
        "meta_mean_motion_dot": -0.01933716,
        "meta_mean_motion_ddot": 0,
        "tle_line1": "1 66803U 25278N   25354.58336806 -.01933716  00000+0 -24349-1 0  9999",
        "tle_line2": "2 66803  42.9995 204.4383 0001592 250.8399  70.4956 15.62065150  4309"
      },
      "geometry": {
        "type": "Point",
        "coordinates": [
          -81.4531547155781,
          42.08754432638265
        ]
      }
    },
    {
      "type": "Feature",
      "properties": {
        "norad_id": 66804,
        "name": "STARLINK-36038",
        "group": "last-30-days",
        "lat": 42.38097415103501,
        "lon": -78.89459633012058,
        "alt_km": 379.50970765824786,
        "timestamp": "2025-12-20T20:38:43.173031+00:00",
        "meta_object_name": "STARLINK-36038",
        "meta_object_id": "2025-278P",
        "meta_epoch": "2025-12-20T14:00:03.000384",
        "meta_mean_motion": 15.62063542,
        "meta_eccentricity": 0.00016214,
        "meta_inclination": 42.9993,
        "meta_ra_of_asc_node": 204.4343,
        "meta_arg_of_pericenter": 250.4092,
        "meta_mean_anomaly": 72.8461,
        "meta_ephemeris_type": 0,
        "meta_classification_type": "U",
        "meta_norad_cat_id": 66804,
        "meta_element_set_no": 999,
        "meta_rev_at_epoch": 421,
        "meta_bstar": -0.024356117,
        "meta_mean_motion_dot": -0.0193413,
        "meta_mean_motion_ddot": 0,
        "tle_line1": "1 66804U 25278P   25354.58336806 -.01934130  00000+0 -24356-1 0  9999",
        "tle_line2": "2 66804  42.9993 204.4343 0001621 250.4092  72.8461 15.62063542  4213"
      },
      "geometry": {
        "type": "Point",
        "coordinates": [
          -78.89459633012058,
          42.38097415103501
        ]
      }
    },
    {
      "type": "Feature",
      "properties": {
        "norad_id": 66805,
        "name": "STARLINK-36049",
        "group": "last-30-days",
        "lat": 42.794948155405685,
        "lon": -73.71755191030084,
        "alt_km": 379.439680891589,
        "timestamp": "2025-12-20T20:38:43.173041+00:00",
        "meta_object_name": "STARLINK-36049",
        "meta_object_id": "2025-278Q",
        "meta_epoch": "2025-12-20T14:00:03.000384",
        "meta_mean_motion": 15.6206724,
        "meta_eccentricity": 0.00015984,
        "meta_inclination": 42.9995,
        "meta_ra_of_asc_node": 204.4233,
        "meta_arg_of_pericenter": 257.2021,
        "meta_mean_anomaly": 69.8855,
        "meta_ephemeris_type": 0,
        "meta_classification_type": "U",
        "meta_norad_cat_id": 66805,
        "meta_element_set_no": 999,
        "meta_rev_at_epoch": 421,
        "meta_bstar": -0.024405257,
        "meta_mean_motion_dot": -0.019378,
        "meta_mean_motion_ddot": 0,
        "tle_line1": "1 66805U 25278Q   25354.58336806 -.01937800  00000+0 -24405-1 0  9992",
        "tle_line2": "2 66805  42.9995 204.4233 0001598 257.2021  69.8855 15.62067240  4216"
      },
      "geometry": {
        "type": "Point",
        "coordinates": [
          -73.71755191030084,
          42.794948155405685
        ]
      }
    }
  ]
}